GLOBALSTAR M084         
1 38040U 11080A   26002.61926072 -.00000102  00000+0  12539-4 0  9995
2 38040  51.9994 161.3308 0001294 101.3046 338.3994 12.62267157647855
GLOBALSTAR M080         
1 38041U 11080B   26002.75435938 -.00000094  00000+0  51935-4 0  9990
2 38041  52.0045 162.5806 0000591 114.0623 349.6828 12.62265609647998
GLOBALSTAR M082         
1 38042U 11080C   26002.70015056 -.00000115  00000+0 -65344-4 0  9995
2 38042  52.0069 118.2284 0000554 126.7635  20.2396 12.62266461648692
GLOBALSTAR M092         
1 38043U 11080D   26002.90269119 -.00000073  00000+0  17151-3 0  9993
2 38043  52.0060 208.0010 0001035  83.9894  23.5863 12.62269127647174
GLOBALSTAR M090         
1 38044U 11080E   26002.73072714 -.00000108  00000+0 -22388-4 0  9997
2 38044  52.0117 112.0381 0000697 105.8853  58.9680 12.62265625648815
GLOBALSTAR M086         
1 38045U 11080F   26002.66996931 -.00000099  00000+0  23949-4 0  9998
2 38045  51.9893 112.4226 0001514  68.2780  71.2844 12.62281752648759
GLOBALSTAR M097         
1 39072U 13005A   26002.58845007 -.00000090  00000+0  79492-4 0  9991
2 39072  52.0068  27.4322 0000321  75.1131 284.9771 12.62267810595998
GLOBALSTAR M093         
1 39073U 13005B   26002.48312866 -.00000092  00000+0  66416-4 0  9997
2 39073  52.0130  21.0378 0000345  27.2056 332.8829 12.62271326595938
